BEIJING 1               
1 28890U 05043A   22308.89439644  .00000469  00000+0  10372-3 0  9995
2 28890  98.1353  68.8507 0016482  94.4393 265.8700 14.61532850907655
HJ-1A                   
1 33320U 08041A   22308.97578170  .00001411  00000+0  20172-3 0  9994
2 33320  97.6668 335.3702 0022345 132.5565 227.7574 14.77973674763141
HJ-1B                   
1 33321U 08041B   22308.92716868  .00002518  00000+0  35231-3 0  9999
2 33321  97.6829 339.1710 0035041 151.4045 208.9117 14.77996216763132
YAOGAN 4                
1 33446U 08061A   22308.56947543  .00001240  00000+0  18030-3 0  9994
2 33446  97.8288 244.5102 0017296  44.3873 315.8721 14.77554342750287
DEIMOS-1                
1 35681U 09041A   22308.89340651  .00001003  00000+0  16647-3 0  9998
2 35681  97.6980 152.6620 0002850 113.9764 246.1747 14.72161720712431
UK-DMC 2                
1 35683U 09041C   22308.91032782  .00001424  00000+0  23653-3 0  9998
2 35683  97.7083 114.4913 0001471 111.7771 248.3590 14.71575445712163
RISAT 1                 
1 38248U 12017A   22308.66719288  .00006415  00000+0  36807-3 0  9990
2 38248  97.5515 318.5601 0005346 122.4739 237.7010 15.12887031580019
DMC3-FM1                
1 40715U 15032A   22308.95375949  .00000855  00000+0  11359-3 0  9993
2 40715  97.8246 192.8622 0007252  68.2590 291.9406 14.82260039394104
DMC3-FM2                
1 40716U 15032B   22308.97697613  .00001475  00000+0  19121-3 0  9995
2 40716  97.8296 193.5990 0009199  69.5682 290.6518 14.82255038394118
DMC3-FM3                
1 40717U 15032C   22308.86237649  .00001456  00000+0  18859-3 0  9999
2 40717  97.8337 194.4617 0011057  67.8197 292.4188 14.82309529394094
